[
    {
        "CCSDS_OMM_VERS": "3.0",
        "COMMENT": "GENERATED VIA SPACE-TRACK.ORG API",
        "CREATION_DATE": "2025-05-04T06:46:18",
        "ORIGINATOR": "18 SPCS",
        "OBJECT_NAME": "NAVSTAR 79 (USA 304)",
        "OBJECT_ID": "2020-041A",
        "CENTER_NAME": "EARTH",
        "REF_FRAME": "TEME",
        "TIME_SYSTEM": "UTC",
        "MEAN_ELEMENT_THEORY": "SGP4",
        "EPOCH": "2025-05-04T03:14:36.145248",
        "MEAN_MOTION": "2.00567437",
        "ECCENTRICITY": "0.00520080",
        "INCLINATION": "56.3848",
        "RA_OF_ASC_NODE": "44.8579",
        "ARG_OF_PERICENTER": "199.5423",
        "MEAN_ANOMALY": "333.3088",
        "EPHEMERIS_TYPE": "0",
        "CLASSIFICATION_TYPE": "U",
        "NORAD_CAT_ID": "45854",
        "ELEMENT_SET_NO": "999",
        "REV_AT_EPOCH": "3582",
        "BSTAR": "0.00000000000000",
        "MEAN_MOTION_DOT": "-0.00000082",
        "MEAN_MOTION_DDOT": "0.0000000000000",
        "SEMIMAJOR_AXIS": "26560.009",
        "PERIOD": "717.963",
        "APOAPSIS": "20320.008",
        "PERIAPSIS": "20043.741",
        "OBJECT_TYPE": "PAYLOAD",
        "RCS_SIZE": "LARGE",
        "COUNTRY_CODE": "US",
        "LAUNCH_DATE": "2020-06-30",
        "SITE": "AFETR",
        "DECAY_DATE": null,
        "FILE": "4718479",
        "GP_ID": "286816918",
        "TLE_LINE0": "0 NAVSTAR 79 (USA 304)",
        "TLE_LINE1": "1 45854U 20041A   25124.13514057 -.00000082  00000-0  00000+0 0  9993",
        "TLE_LINE2": "2 45854  56.3848  44.8579 0052008 199.5423 333.3088  2.00567437 35827"
    }
]